{"fetchedAt":"2026-06-29T18:07:57.254Z","satellites":[{"id":"32275","name":"COSMOS 2433 (720)","constellationId":"glo","omm":{"OBJECT_NAME":"COSMOS 2433 (720)","OBJECT_ID":"2007-052A","EPOCH":"2026-06-26T07:13:06.780288","MEAN_MOTION":2.13104185,"ECCENTRICITY":0.0002876,"INCLINATION":65.5713,"RA_OF_ASC_NODE":315.6262,"ARG_OF_PERICENTER":196.1254,"MEAN_ANOMALY":163.8539,"EPHEMERIS_TYPE":0,"CLASSIFICATION_TYPE":"U","NORAD_CAT_ID":32275,"ELEMENT_SET_NO":999,"REV_AT_EPOCH":14525,"BSTAR":0,"MEAN_MOTION_DOT":-8.4e-7,"MEAN_MOTION_DDOT":0}},{"id":"32276","name":"COSMOS 2432 (719)","constellationId":"glo","omm":{"OBJECT_NAME":"COSMOS 2432 (719)","OBJECT_ID":"2007-052B","EPOCH":"2026-06-27T23:26:54.039840","MEAN_MOTION":2.13103239,"ECCENTRICITY":0.000748,"INCLINATION":65.5863,"RA_OF_ASC_NODE":315.6977,"ARG_OF_PERICENTER":328.083,"MEAN_ANOMALY":181.6997,"EPHEMERIS_TYPE":0,"CLASSIFICATION_TYPE":"U","NORAD_CAT_ID":32276,"ELEMENT_SET_NO":999,"REV_AT_EPOCH":14531,"BSTAR":0,"MEAN_MOTION_DOT":-7.8e-7,"MEAN_MOTION_DDOT":0}},{"id":"32393","name":"COSMOS 2434 (721)","constellationId":"glo","omm":{"OBJECT_NAME":"COSMOS 2434 (721)","OBJECT_ID":"2007-065A","EPOCH":"2026-06-27T04:34:21.639072","MEAN_MOTION":2.1310137,"ECCENTRICITY":0.00012437,"INCLINATION":64.3185,"RA_OF_ASC_NODE":191.5785,"ARG_OF_PERICENTER":326.9302,"MEAN_ANOMALY":245.4349,"EPHEMERIS_TYPE":0,"CLASSIFICATION_TYPE":"U","NORAD_CAT_ID":32393,"ELEMENT_SET_NO":999,"REV_AT_EPOCH":14398,"BSTAR":0,"MEAN_MOTION_DOT":0.00000101,"MEAN_MOTION_DDOT":0}},{"id":"32395","name":"COSMOS 2436 (723)","constellationId":"glo","omm":{"OBJECT_NAME":"COSMOS 2436 (723)","OBJECT_ID":"2007-065C","EPOCH":"2026-06-27T20:09:37.709856","MEAN_MOTION":2.13100206,"ECCENTRICITY":0.00172824,"INCLINATION":64.3274,"RA_OF_ASC_NODE":191.6289,"ARG_OF_PERICENTER":353.5963,"MEAN_ANOMALY":129.3057,"EPHEMERIS_TYPE":0,"CLASSIFICATION_TYPE":"U","NORAD_CAT_ID":32395,"ELEMENT_SET_NO":999,"REV_AT_EPOCH":14395,"BSTAR":0,"MEAN_MOTION_DOT":9.6e-7,"MEAN_MOTION_DDOT":0}},{"id":"36111","name":"COSMOS 2456 (730)","constellationId":"glo","omm":{"OBJECT_NAME":"COSMOS 2456 (730)","OBJECT_ID":"2009-070A","EPOCH":"2026-06-28T08:20:37.845600","MEAN_MOTION":2.13103741,"ECCENTRICITY":0.0003933,"INCLINATION":65.0173,"RA_OF_ASC_NODE":70.5914,"ARG_OF_PERICENTER":337.8031,"MEAN_ANOMALY":200.4792,"EPHEMERIS_TYPE":0,"CLASSIFICATION_TYPE":"U","NORAD_CAT_ID":36111,"ELEMENT_SET_NO":999,"REV_AT_EPOCH":12866,"BSTAR":0,"MEAN_MOTION_DOT":-4.1e-7,"MEAN_MOTION_DDOT":0}},{"id":"36112","name":"COSMOS 2457 (733)","constellationId":"glo","omm":{"OBJECT_NAME":"COSMOS 2457 (733)","OBJECT_ID":"2009-070B","EPOCH":"2026-06-27T15:17:52.260288","MEAN_MOTION":2.13101175,"ECCENTRICITY":0.00032322,"INCLINATION":65.0032,"RA_OF_ASC_NODE":70.459,"ARG_OF_PERICENTER":122.1051,"MEAN_ANOMALY":358.6068,"EPHEMERIS_TYPE":0,"CLASSIFICATION_TYPE":"U","NORAD_CAT_ID":36112,"ELEMENT_SET_NO":999,"REV_AT_EPOCH":12865,"BSTAR":0,"MEAN_MOTION_DOT":-4.8e-7,"MEAN_MOTION_DDOT":0}},{"id":"36402","name":"COSMOS 2460 (732)","constellationId":"glo","omm":{"OBJECT_NAME":"COSMOS 2460 (732)","OBJECT_ID":"2010-007C","EPOCH":"2026-06-27T05:30:11.897568","MEAN_MOTION":2.1310174,"ECCENTRICITY":0.00020317,"INCLINATION":65.4142,"RA_OF_ASC_NODE":314.1261,"ARG_OF_PERICENTER":121.7117,"MEAN_ANOMALY":47.8769,"EPHEMERIS_TYPE":0,"CLASSIFICATION_TYPE":"U","NORAD_CAT_ID":36402,"ELEMENT_SET_NO":999,"REV_AT_EPOCH":12694,"BSTAR":0,"MEAN_MOTION_DOT":-8.2e-7,"MEAN_MOTION_DDOT":0}},{"id":"37867","name":"COSMOS 2476 (744)","constellationId":"glo","omm":{"OBJECT_NAME":"COSMOS 2476 (744)","OBJECT_ID":"2011-064A","EPOCH":"2026-06-28T08:49:08.907744","MEAN_MOTION":2.13103789,"ECCENTRICITY":0.00224995,"INCLINATION":65.2764,"RA_OF_ASC_NODE":72.4937,"ARG_OF_PERICENTER":238.402,"MEAN_ANOMALY":223.3998,"EPHEMERIS_TYPE":0,"CLASSIFICATION_TYPE":"U","NORAD_CAT_ID":37867,"ELEMENT_SET_NO":999,"REV_AT_EPOCH":11400,"BSTAR":0,"MEAN_MOTION_DOT":-4e-7,"MEAN_MOTION_DDOT":0}},{"id":"37868","name":"COSMOS 2477 (745)","constellationId":"glo","omm":{"OBJECT_NAME":"COSMOS 2477 (745)","OBJECT_ID":"2011-064B","EPOCH":"2026-06-28T17:15:13.880160","MEAN_MOTION":2.13103077,"ECCENTRICITY":0.00194044,"INCLINATION":65.283,"RA_OF_ASC_NODE":72.5612,"ARG_OF_PERICENTER":238.6898,"MEAN_ANOMALY":313.0373,"EPHEMERIS_TYPE":0,"CLASSIFICATION_TYPE":"U","NORAD_CAT_ID":37868,"ELEMENT_SET_NO":999,"REV_AT_EPOCH":11400,"BSTAR":0,"MEAN_MOTION_DOT":-3.6e-7,"MEAN_MOTION_DDOT":0}},{"id":"37869","name":"COSMOS 2475 (743)","constellationId":"glo","omm":{"OBJECT_NAME":"COSMOS 2475 (743)","OBJECT_ID":"2011-064C","EPOCH":"2026-06-28T07:44:05.460288","MEAN_MOTION":2.13101901,"ECCENTRICITY":0.00252201,"INCLINATION":65.2895,"RA_OF_ASC_NODE":72.5964,"ARG_OF_PERICENTER":252.3811,"MEAN_ANOMALY":310.1425,"EPHEMERIS_TYPE":0,"CLASSIFICATION_TYPE":"U","NORAD_CAT_ID":37869,"ELEMENT_SET_NO":999,"REV_AT_EPOCH":11400,"BSTAR":0,"MEAN_MOTION_DOT":-4e-7,"MEAN_MOTION_DDOT":0}},{"id":"39155","name":"COSMOS 2485 (747)","constellationId":"glo","omm":{"OBJECT_NAME":"COSMOS 2485 (747)","OBJECT_ID":"2013-019A","EPOCH":"2026-06-28T15:23:45.661344","MEAN_MOTION":2.13103395,"ECCENTRICITY":0.00228927,"INCLINATION":65.4259,"RA_OF_ASC_NODE":73.2198,"ARG_OF_PERICENTER":232.6501,"MEAN_ANOMALY":127.1904,"EPHEMERIS_TYPE":0,"CLASSIFICATION_TYPE":"U","NORAD_CAT_ID":39155,"ELEMENT_SET_NO":999,"REV_AT_EPOCH":10252,"BSTAR":0,"MEAN_MOTION_DOT":-3.7e-7,"MEAN_MOTION_DDOT":0}},{"id":"39620","name":"COSMOS 2492 (754)","constellationId":"glo","omm":{"OBJECT_NAME":"COSMOS 2492 (754)","OBJECT_ID":"2014-012A","EPOCH":"2026-06-28T14:24:30.100032","MEAN_MOTION":2.13103394,"ECCENTRICITY":0.00102677,"INCLINATION":65.2906,"RA_OF_ASC_NODE":313.5472,"ARG_OF_PERICENTER":322.2306,"MEAN_ANOMALY":37.6876,"EPHEMERIS_TYPE":0,"CLASSIFICATION_TYPE":"U","NORAD_CAT_ID":39620,"ELEMENT_SET_NO":999,"REV_AT_EPOCH":9548,"BSTAR":0,"MEAN_MOTION_DOT":-7.4e-7,"MEAN_MOTION_DDOT":0}},{"id":"40001","name":"COSMOS 2500 (755)","constellationId":"glo","omm":{"OBJECT_NAME":"COSMOS 2500 (755)","OBJECT_ID":"2014-032A","EPOCH":"2026-06-27T08:41:34.003968","MEAN_MOTION":2.13106005,"ECCENTRICITY":0.00077512,"INCLINATION":65.2259,"RA_OF_ASC_NODE":313.336,"ARG_OF_PERICENTER":186.3038,"MEAN_ANOMALY":173.6757,"EPHEMERIS_TYPE":0,"CLASSIFICATION_TYPE":"U","NORAD_CAT_ID":40001,"ELEMENT_SET_NO":999,"REV_AT_EPOCH":9367,"BSTAR":0,"MEAN_MOTION_DOT":-8.1e-7,"MEAN_MOTION_DDOT":0}},{"id":"40315","name":"COSMOS 2501 (702K)","constellationId":"glo","omm":{"OBJECT_NAME":"COSMOS 2501 (702K)","OBJECT_ID":"2014-075A","EPOCH":"2026-06-28T02:14:52.596384","MEAN_MOTION":2.13101409,"ECCENTRICITY":0.00226466,"INCLINATION":63.6168,"RA_OF_ASC_NODE":189.9945,"ARG_OF_PERICENTER":212.6319,"MEAN_ANOMALY":147.2733,"EPHEMERIS_TYPE":0,"CLASSIFICATION_TYPE":"U","NORAD_CAT_ID":40315,"ELEMENT_SET_NO":999,"REV_AT_EPOCH":9008,"BSTAR":0,"MEAN_MOTION_DOT":9.3e-7,"MEAN_MOTION_DDOT":0}},{"id":"41330","name":"COSMOS 2514 (751)","constellationId":"glo","omm":{"OBJECT_NAME":"COSMOS 2514 (751)","OBJECT_ID":"2016-008A","EPOCH":"2026-06-29T11:39:43.965792","MEAN_MOTION":2.13102772,"ECCENTRICITY":0.0011738,"INCLINATION":65.0137,"RA_OF_ASC_NODE":312.5846,"ARG_OF_PERICENTER":199.3082,"MEAN_ANOMALY":160.6408,"EPHEMERIS_TYPE":0,"CLASSIFICATION_TYPE":"U","NORAD_CAT_ID":41330,"ELEMENT_SET_NO":999,"REV_AT_EPOCH":8088,"BSTAR":0,"MEAN_MOTION_DOT":-6.7e-7,"MEAN_MOTION_DDOT":0}}]}